0 OBJECT NU
1 43546U 98067NU  18200.35116195  .00010096  00000-0  15710-3 0  9997
2 43546  51.6404 218.3728 0005753 323.7765  36.2819 15.54552437   839
0 OBJECT NV
1 43547U 98067NV  18200.02974721  .00010852  00000-0  16832-3 0  9995
2 43547  51.6394 219.9788 0005644 322.1557  37.9714 15.54548839   464
0 OBJECT NW
1 43548U 98067NW  18200.47978306 +.00005448 +00000-0 +88308-4 0  9991
2 43548 051.6404 217.7330 0006016 334.8322 025.2376 15.54498883000984
0 OBJECT NX
1 43549U 98067NX  18200.47976524 +.00006109 +00000-0 +98102-4 0  9990
2 43549 051.6402 217.7367 0006420 336.4051 023.6646 15.54507022000549
0 OBJECT NY
1 43550U 98067NY  18200.67246669  .00009911  00000-0  15420-3 0  9999
2 43550  51.6392 216.7690 0005906 350.6456   9.4423 15.54576811  1034
0 OBJECT NZ
1 43551U 98067NZ  18200.35049101 +.00007954 +00000-0 +12453-3 0  9995
2 43551 051.6409 218.3740 0006233 339.8005 020.2733 15.54725919000939
0 OBJECT PA
1 43552U 98067PA  18200.35040552 +.00006769 +00000-0 +10702-3 0  9995
2 43552 051.6415 218.3720 0005251 334.9564 025.1168 15.54742304000900
0 OBJECT PB
1 43553U 98067PB  18200.54318659  .00007356  00000-0  11558-3 0  9996
2 43553  51.6398 217.4064 0006490 341.4193  18.6280 15.54760853   977
0 OBJECT PC
1 43554U 98067PC  18200.54319579  .00005450  00000-0  87558-4 0  9996
2 43554  51.6400 217.4160 0004741 324.4029  35.6982 15.54748955   501
